#dP2024  9 28  0  0  0.00000000      96 __u+U IGS20 EXT  IAC
## 2333 518400.00000000   900.00000000 60581 0.0000000000000
+   53   G01G02G03G04G05G06G07G08G09G10G11G12G13G14G15G16G17
+        G18G19G20G21G22G23G24G25G26G27G28G29G30G32R01R02R03
+        R04R05R07R08R09R11R12R14R15R16R17R18R19R20R21R22R24
+        R25R26  0  0  0  0  0  0  0  0  0  0  0  0  0  0  0
+          0  0  0  0  0  0  0  0  0  0  0  0  0  0  0  0  0
++        10  8  7  8  8  7  8  6  8  6  7  8  7  6  7  7  6
++         8  7  7  7  6  7  8  7  8  7  8  7  8  8  7  8  9
++         8  9  7  9  9  7  6  7  9  7  9  7  8  7  7  8  7
++         8  7  0  0  0  0  0  0  0  0  0  0  0  0  0  0  0
++         0  0  0  0  0  0  0  0  0  0  0  0  0  0  0  0  0
%c M  cc GPS ccc cccc cccc cccc cccc ccccc ccccc ccccc ccccc
%c cc cc ccc ccc cccc cccc cccc cccc ccccc ccccc ccccc ccccc
%f  0.0000000  0.000000000  0.00000000000  0.000000000000000
%f  0.0000000  0.000000000  0.00000000000  0.000000000000000
%i    0    0    0    0      0      0      0      0         0
%i    0    0    0    0      0      0      0      0         0
/* IAC                                ULTRA-RAPID PREDICTION
/* S/V CLOCKS ARE ALIGNED TO GNSS TIME                      
/* G:C1WC2W R:C1PC2P E:C1XC5X C:C2IC6I J:C1CC2S             
/* PCV:IGS20_2317 OL/AL:FES2004  NONE     YN ORB:CoN CLK:CoN
*  2024 09 28 20 30  0.00000000
PG01   7809.112610 -24695.164308   4637.593994    185.479036
PG02 -22928.215645 -13599.364715   2606.520213   -348.342042
PG03 -13003.593876  -8300.568041  21469.704187    553.372111
PG04 -22451.689224  -2709.034035  14059.649466    452.198893
PG05   6255.391566  22416.057704 -12920.294518   -188.102636
PG06  -4962.320299  14508.413547  21739.719599     -1.143835
PG07 -20671.754963  -1927.505654 -16289.647163    -32.769119
PG08 -13667.583524 -10200.924645 -20575.958007    367.798449
PG09 -25287.233318   6527.988748   4915.435058    376.118382
PG10  10338.728885 -22086.030794  -9886.505643   -140.513360
PG11   9090.628159  20929.924814  13684.568775   -739.339151
PG12  11361.328365  12771.943610  20058.864440   -541.408197
PG13   4454.496460  14442.154970 -22077.325985    678.884241
PG14 -13055.781485  19044.031261 -12878.894777    505.904032
PG15  14985.716794   8924.128046 -20593.027207    209.620276
PG16   -874.656442 -24525.065625  -9900.937479   -168.742207
PG17 -19922.383517  14135.312224  11059.037449    612.644582
PG18  19766.002802    985.949874 -17800.446487   -655.767397
PG19 -12552.722819  15523.984631  17150.501948    543.951945
PG20   1460.582323  26556.620631  -1484.349984    370.179081
PG21 -20986.856501 -16839.448752  -3131.265931    100.844258
PG22  -9825.913657  24275.138490  -4896.676485    -66.278286
PG23  14562.771250 -10627.346531 -19394.487337    330.284223
PG24  21990.041349  15290.932750   -698.065062   -486.084682
PG25  15487.233351  -1160.808861  21181.940858    499.618669
PG26   4374.302079 -25783.073540   3101.830995     68.340955
PG27  -1919.284768 -15544.521395 -21700.466401    -34.150318
PG28   6941.192518 -13708.776779  21651.363879   -427.706792
PG29  25568.034800  -2484.239697   6965.229902   -574.857896
PG30 -13940.079435   8440.315700 -20858.066570   -312.563529
PG32  17890.992489 -15718.382774  11760.973711   -592.532801
PR01 -17348.976374  18401.783013  -3303.019413     99.294386
PR02  -6488.751153  16744.810108 -18111.342069    -24.893292
PR03   9128.746323   6265.048306 -22935.726590    108.446810
PR04  19140.919137  -7290.958355 -15166.920871    256.850603
PR05  19101.639118 -16866.799459    733.386880    138.348257
PR07  -9659.449197  -5790.682945  22924.971493     91.835557
PR08 -19234.629696   7571.648703  15026.881636     -6.409775
PR09  -3712.827622 -24897.860174   4409.298477    211.718843
PR11 -11787.451802  -5068.849649 -22036.927327     10.642878
PR12  -6146.274332  15597.252814 -19203.234874     45.397636
PR14  10489.716076  19608.177266  12491.561700     26.973560
PR15  11701.889665   3189.982144  22460.143843     75.390632
PR16   6069.036341 -15439.700418  19402.280720     29.527224
PR17  20621.779864  11675.611293   9519.726094    126.083043
PR18  23968.159001   5228.296914  -6900.761076    164.328612
PR19  16868.979658  -2498.637599 -18971.914874   -293.016743
PR20  -4021.891143 -12176.959834 -22043.276645   -119.748486
PR21 -20024.587382 -11991.322753 -10241.041388   -138.358408
PR22 -23693.420232  -4976.179301   8068.293722     35.350215
PR24   4969.603436  12522.008132  21687.087180    -73.895111
PR25 -20303.060216 -12445.310961  -9095.029200    -96.730424
PR26 -18621.821059   6466.795497  16192.616603     48.006297
*  2024 09 28 20 45  0.00000000
PG01   7994.091010 -23921.081632   7384.386354    185.469992
PG02 -22884.659004 -13821.209742   -238.386907   -348.334781
PG03 -12623.697550 -10706.732062  20630.875635    553.383418
PG04 -20899.555147  -3465.472569  16123.155713    452.205178
PG05   5960.881920  23710.025664 -10479.603932   -188.103806
PG06  -6931.510648  12982.059572  22172.466830     -1.167895
PG07 -22005.385367  -3186.318729 -14329.459624    -32.765579
PG08 -11536.772051 -11234.182499 -21294.915174    367.809558
PG09 -24721.150794   6007.743798   7642.746150    376.133042
PG10  10348.823225 -20760.398917 -12406.553529   -140.524882
PG11   7697.963584  19978.443841  15796.647624   -739.342422
PG12  10798.262948  14982.606070  18823.539042   -541.410685
PG13   2057.942565  15040.011561 -22010.124206    678.886014
PG14 -13049.806555  17410.228591 -15031.580508    505.911679
PG15  13062.721498  10182.300621 -21310.205319    209.624241
PG16   -415.321822 -25398.035487  -7252.268592   -168.733087
PG17 -20986.674660  14298.722329   8500.156522    612.633694
PG18  21192.180841   2285.007244 -15967.073718   -655.769009
PG19 -14420.326135  15881.463721  15228.035588    543.956288
PG20   1202.372149  26584.255567   1352.040617    370.178742
PG21 -20433.467129 -16695.032091  -5866.607473    100.843585
PG22  -9884.861919  23485.326283  -7613.440575    -66.281492
PG23  14417.822340  -8334.297440 -20604.167112    330.291704
PG24  21674.598586  15441.677618  -3463.999834   -486.084077
PG25  15237.176933   1339.803668  21372.452378    499.618636
PG26   4713.550507 -25228.233259   5853.988049     68.332962
PG27    310.551921 -16416.630155 -21087.155351    -34.150675
PG28   8967.138070 -12266.416181  21772.183332   -427.718885
PG29  24729.624326  -1992.694567   9616.409355   -574.855682
PG30 -15781.796735   6932.190548 -20117.457671   -312.556983
PG32  19065.501202 -15970.455237   9245.260480   -592.529195
PR01 -17392.799650  18653.744754    -98.996527     99.295518
PR02  -7955.874014  18261.685381 -15940.553545    -24.893504
PR03   7054.287187   8217.801059 -23055.945888    108.447702
PR04  17572.281035  -6013.407441 -17451.972592    256.852194
PR05  18900.086602 -16924.633472  -2494.008003    138.348753
PR07  -7587.463431  -7724.027765  23129.235090     91.836223
PR08 -17706.019810   6299.150054  17322.146914     -6.409786
PR09  -3611.313447 -24170.158965   7479.090084    211.720731
PR11 -12480.834372  -7628.297996 -20890.156784     10.641987
PR12  -6667.694688  13180.313986 -20772.820497     45.398142
PR14  10923.670811  20908.225305   9693.184762     26.973567
PR15  12377.242403   5814.661954  21552.161532     75.390205
PR16   6591.985835 -13007.635994  20950.524211     29.527607
PR17  19382.576722  11118.427290  12364.191144    126.086055
PR18  24657.532880   5242.967339  -3746.511918    164.330303
PR19  19006.111794  -1888.886446 -16911.617392   -293.018008
PR20  -1424.580041 -11189.131889 -22869.303576   -119.749050
PR21 -18702.899296 -11394.002165 -13041.362467   -138.361302
PR22 -24497.690368  -5103.304777   4988.274413     35.341392
PR24   2375.020936  11685.969809  22573.407922    -73.896519
PR25 -19116.586535 -11896.665482 -11951.715182    -96.727676
PR26 -17005.527297   5077.247952  18328.464147     48.024843
EOF
